[{"OBJECT_NAME":"STARLINK-32284","OBJECT_ID":"2024-158R","EPOCH":"2026-03-09T09:16:18.562944","MEAN_MOTION":15.30206996,"ECCENTRICITY":0.0001286,"INCLINATION":53.1607,"RA_OF_ASC_NODE":67.0254,"ARG_OF_PERICENTER":90.1421,"MEAN_ANOMALY":269.9727,"EPHEMERIS_TYPE":0,"CLASSIFICATION_TYPE":"U","NORAD_CAT_ID":61005,"ELEMENT_SET_NO":999,"REV_AT_EPOCH":8553,"BSTAR":7.9951044e-5,"MEAN_MOTION_DOT":2.01e-5,"MEAN_MOTION_DDOT":0},{"OBJECT_NAME":"OBJECT BC","OBJECT_ID":"2025-313BC","EPOCH":"2026-03-09T04:33:08.504064","MEAN_MOTION":15.29126358,"ECCENTRICITY":0.00084789,"INCLINATION":97.3985,"RA_OF_ASC_NODE":144.811,"ARG_OF_PERICENTER":328.9209,"MEAN_ANOMALY":31.1528,"EPHEMERIS_TYPE":0,"CLASSIFICATION_TYPE":"U","NORAD_CAT_ID":67298,"ELEMENT_SET_NO":999,"REV_AT_EPOCH":789,"BSTAR":0.0026410397,"MEAN_MOTION_DOT":0.00075331,"MEAN_MOTION_DDOT":0}]
